YUBILEINY (RS30)        
1 32953U 08025A   26079.17005860 -.00000009  00000+0 -13377-3 0  9992
2 32953  82.5013  50.8004 0019897 142.6137 217.6331 12.43176245808631
KKS-1 (KISEKI)          
1 33499U 09002H   26079.12649898  .00001321  00000+0  16997-3 0  9991
2 33499  98.1186   0.1807 0006960 210.8527 149.2278 14.82866268922990
SWISSCUBE               
1 35932U 09051B   26078.67315284  .00000986  00000+0  20527-3 0  9997
2 35932  98.4091 344.9929 0007678 124.3319 235.8609 14.62285447876070
BEESAT-1                
1 35933U 09051C   26079.18455048  .00000819  00000+0  17480-3 0  9997
2 35933  98.4021 345.3322 0005965 133.5948 226.5748 14.61555798876184
ITUPSAT1                
1 35935U 09051E   26079.16639771  .00000760  00000+0  16750-3 0  9998
2 35935  98.4107 344.5980 0007956 146.4187 213.7518 14.60288849875745
XIWANG-1 (HOPE-1)       
1 36122U 09072B   26079.17288880 -.00000279  00000+0 -61576-3 0  9995
2 36122 100.3932  34.4651 0008131  77.5473 282.6549 13.16434847781297
O/OREOS (USA 219)       
1 37224U 10062C   26078.98104998  .00002074  00000+0  20333-3 0  9994
2 37224  71.9692 282.3457 0016542 239.3290 120.6250 14.93329831103329
JUGNU                   
1 37839U 11058B   26078.30882896  .00000460  00000+0  10033-3 0  9991
2 37839  19.9598 134.4563 0018595 163.1354 268.9719 14.13745108746294
SRMSAT                  
1 37841U 11058D   26078.73718363  .00000432  00000+0  90431-4 0  9998
2 37841  19.9710 240.8905 0011736 300.1762 174.9166 14.11551595745161
STRAND-1                
1 39090U 13009E   26079.00809902  .00000296  00000+0  11394-3 0  9993
2 39090  98.3895 261.4436 0009537 132.9524 227.2465 14.37103384684258
ZACUBE-1 (TSHEPISOSAT)  
1 39417U 13066B   26079.13399870  .00003547  00000+0  28152-3 0  9993
2 39417  97.8160  41.0086 0043777 185.5150 174.5597 15.00414709667377
GOMX-1                  
1 39430U 13066Q   26079.17730356  .00001155  00000+0  18060-3 0  9990
2 39430  97.6557 285.2288 0129483   4.0040 356.2171 14.69134543656844
CUBEBUG-2 (LO-74)       
1 39440U 13066AA  26078.81753553  .00004183  00000+0  39476-3 0  9993
2 39440  97.8834  27.5076 0057499 325.3719  34.3761 14.93072648663656
FUNCUBE-1 (AO-73)       
1 39444U 13066AE  26078.85967250  .00007531  00000+0  48448-3 0  9991
2 39444  97.8205  48.5722 0038250 145.2152 215.1587 15.08079169666196
UWE-3                   
1 39446U 13066AG  26078.82792725  .00004574  00000+0  40106-3 0  9990
2 39446  97.8624  34.4001 0047618 257.2633 102.3263 14.96289820664215
UNISAT-6                
1 40012U 14033C   26079.16598068  .00002536  00000+0  27930-3 0  9994
2 40012  97.7745 233.5360 0045281   3.5906 356.5627 14.87703463632922
DUCHIFAT-1              
1 40021U 14033M   26079.09046644  .00047871  00000+0  82171-3 0  9993
2 40021  98.0607 126.7532 0005073  55.6967 304.4762 15.51015596641889
QB50P1                  
1 40025U 14033R   26079.00241389  .00007811  00000+0  40178-3 0  9992
2 40025  98.1004  83.9835 0009492 159.5214 200.6400 15.16720530639507
LILACSAT-2              
1 40908U 15049K   26079.17920451  .00015480  00000+0  29360-3 0  9993
2 40908  97.4786 112.7694 0006675 201.4188 158.6784 15.48392609581967
FOX-1A (AO-85)          
1 40967U 15058D   26078.72458280  .00002583  00000+0  24132-3 0  9996
2 40967  64.7759 196.8851 0128608  91.8869 269.6978 14.90431111100238
CAS-2T & KS-1Q          
1 41847U 16066G   26079.16644291  .00000934  00000+0  13937-3 0  9991
2 41847  98.3871 155.9006 0343192  39.8053 322.7781 14.44497610491945
RADFXSAT (FOX-1B)       
1 43017U 17073E   26079.19088380  .00006348  00000+0  28891-3 0  9995
2 43017  97.4834 308.2675 0153548 275.6617  82.7121 15.11076992451948
DIWATA-2B               
1 43678U 18084H   26079.19545295  .00001349  00000+0  11352-3 0  9994
2 43678  98.1029 271.6633 0012776  95.1217 265.1464 15.00009437402873
ES'HAIL 2               
1 43700U 18090A   26079.06101370  .00000147  00000+0  00000+0 0  9994
2 43700   0.0150 215.0628 0001147 125.9001 244.3907  1.00271226 26780
FOX-1CLIFF (AO-95)      
1 43770U 18099N   26079.14479612  .00009795  00000+0  39894-3 0  9991
2 43770  97.4480 139.8092 0007518 305.5915  54.4622 15.24665968399642
ITASAT                  
1 43786U 18099AE  26079.12529544  .00005943  00000+0  29654-3 0  9990
2 43786  97.4141 132.4419 0011379 307.0977  52.9217 15.17832418399393
JY1SAT (JO-97)          
1 43803U 18099AX  26079.14715152  .00014024  00000+0  47516-3 0  9991
2 43803  97.4230 141.8248 0005433 212.6335 147.4571 15.30663841399995
UWE-4                   
1 43880U 18111E   26079.19895210  .00020469  00000+0  50347-3 0  9996
2 43880  97.5861   3.8738 0006048 291.9774  68.0829 15.40641446397059
TIANYAN 01              
1 44881U 19093C   26079.18760354  .00000257  00000+0  35177-4 0  9995
2 44881  97.7600 153.5763 0014261  25.8944 334.2982 14.86361676338195
RS-44 & BREEZE-KM R/B   
1 44909U 19096E   26078.95772572  .00000005  00000+0 -23606-4 0  9994
2 44909  82.5225  38.9903 0217485 353.3374   6.4845 12.79747595290935
SALSAT                  
1 46495U 20068K   26079.21439105  .00006464  00000+0  23674-3 0  9997
2 46495  97.8859  76.9579 0008116 251.1965 108.8393 15.28376099301763
XW-3 (CAS-9)            
1 50466U 21131B   26079.19530345  .00000410  00000+0  14041-3 0  9990
2 50466  98.4957 172.0893 0004310  22.9474 337.1906 14.41263078222293
GREENCUBE (IO-117)      
1 53109U 22080E   26076.67008593 -.00000003  00000+0  00000+0 0  9991
2 53109  70.1584 330.0822 0008872 311.0441  48.9452  6.42583172 86185
UMKA 1 (RS40S)          
1 57172U 23091G   26079.17326044  .00004800  00000+0  22725-3 0  9990
2 57172  97.5155 138.2364 0014512  73.5088 286.7740 15.19737325150482
CUBESX-HSE 3 (RS42S)    
1 57178U 23091N   26079.16736306  .00012007  00000+0  42930-3 0  9999
2 57178  97.5183 143.7444 0012112  54.3142 305.9223 15.28897045150814
MONITOR-3 (RS58S)       
1 57180U 23091Q   26079.20520862  .00008521  00000+0  33366-3 0  9994
2 57180  97.5179 142.0793 0013195  58.7296 301.5233 15.25976083150710
MONITOR-4 (RS57S)       
1 57182U 23091S   26079.18973735  .00010001  00000+0  38997-3 0  9995
2 57182  97.5173 142.0295 0013172  59.4920 300.7616 15.26065504150714
MONITOR-2 (RS39S)       
1 57184U 23091U   26079.22018889  .00004847  00000+0  24108-3 0  9992
2 57184  97.5177 138.0880 0012769  66.5306 293.7269 15.18033430150453
SVYATOBOR 1 (RS60S)     
1 57187U 23091X   26079.19914694  .00008711  00000+0  35121-3 0  9991
2 57187  97.5186 142.5870 0010639  52.9948 307.2261 15.25019184150743
VIZARD-METEO (RS38S)    
1 57189U 23091Z   26079.20736969  .00015556  00000+0  48792-3 0  9995
2 57189  97.5175 147.0697 0008038  39.4846 320.6981 15.33111411151044
NANOZOND 1 (RS49S)      
1 57190U 23091AA  26078.96088730  .00196167  00000+0  10787-2 0  9995
2 57190  97.5046 160.0690 0002898 268.2838  91.8096 15.79180031151893
POLYTECH-UNIVERSE 3 (R*)
1 57191U 23091AB  26079.19299993  .00004940  00000+0  24389-3 0  9998
2 57191  97.5153 137.5674 0017352  80.9219 279.3978 15.18219597150442
UTMN 2 (RS27S)          
1 57203U 23091AP  26079.16963824  .00011854  00000+0  41307-3 0  9991
2 57203  97.5176 145.2709 0009002  44.4510 315.7451 15.29772388150926
KUZGTU 1 (RS47S)        
1 57217U 23091AV  26079.21650911  .00010967  00000+0  40638-3 0  9992
2 57217  97.5159 142.8899 0012392  56.9630 303.2797 15.27743086150782
SONATE-2                
1 59112U 24043Q   26078.91246322  .00032247  00000+0  53324-3 0  9990
2 59112  97.5417 224.3401 0008137 167.5380 192.6075 15.52124226114015
MESAT1                  
1 60209U 24125G   26079.19554601  .00030995  00000+0  46961-3 0  9990
2 60209  97.2432 295.1594 0012042 180.8838 179.2397 15.54510143 95704
OOV-CUBE (TUBSAT-30)    
1 60240U 24128F   26078.41393285  .00002312  00000+0  18470-3 0  9997
2 60240  61.9955 178.5030 0053736 114.3358 246.3356 15.02319128 92622
COLIBRI-S (RS67S)       
1 61746U 24199M   26079.18565527  .00014241  00000+0  31488-3 0  9990
2 61746  97.3137 312.4026 0007638 238.2467 121.8038 15.43907103123664
HORS 3 (RS81S)          
1 61753U 24199U   26079.17799760  .00021276  00000+0  39375-3 0  9994
2 61753  97.3102 313.5769 0005448 237.6376 122.4348 15.49033859123754
HORS 4 (RS82S)          
1 61754U 24199V   26079.16178728  .00025444  00000+0  42367-3 0  9995
2 61754  97.3076 314.2992 0005163 232.0153 128.0634 15.51996569123802
HORIZON (RS59S)         
1 61757U 24199Y   26079.18740708  .00110493  00000+0  79865-3 0  9995
2 61757  97.3033 318.4835 0004376 189.6494 170.4686 15.73148483124076
ARCTICSAT 1 (RS74S)     
1 61762U 24199AD  26079.16930263  .00073561  00000+0  66559-3 0  9996
2 61762  97.3058 317.9103 0004581 192.7104 167.4042 15.67845480124034
SIT-2086                
1 61764U 24199AF  26079.19448251  .00016044  00000+0  30682-3 0  9993
2 61764  97.3101 314.3102 0006229 226.5426 133.5307 15.48143987120642
HYPERVIEW 1G (RS66S)    
1 61772U 24199AP  26079.15657914  .00043720  00000+0  55357-3 0  9993
2 61772  97.3061 315.5121 0006479 232.6173 127.4494 15.59351027120731
ALTAIR (RS65S)          
1 61779U 24199AW  26079.19631610  .00008180  00000+0  24125-3 0  9999
2 61779  97.3161 309.1774 0011603 265.4420  94.5498 15.35198429123455
ASRTU-1 (AO-123)        
1 61781U 24199AY  26079.18230497  .00006340  00000+0  19316-3 0  9991
2 61781  97.3133 308.6719 0012395 267.6567  92.3257 15.34255303120275
TUSUR GO (RS78S)        
1 61782U 24199AZ  26078.62293497  .00127257  00000+0  88615-3 0  9998
2 61782  97.2989 316.9067 0004352 209.4667 150.6353 15.73974656120784
SAMSAT-IONOSPHERE (RS7*)
1 61784U 24199BB  26079.19385404  .00025506  00000+0  45013-3 0  9992
2 61784  97.3096 313.4035 0008437 244.8354 115.2023 15.50329477123747
RTU MIREA 1 (RS51S)     
1 61785U 24199BC  26079.17833067  .00029573  00000+0  48493-3 0  9997
2 61785  97.3097 313.8642 0008526 241.6597 118.3796 15.52371134120624
